{
    "links": {
        "self": "http://www.neowsapp.com/rest/v1/neo/3035245?api_key=iIulBulltgU6a56xZRHN4H3l9WmuAYTsLGpBGhQ2"
    },
    "id": "3035245",
    "neo_reference_id": "3035245",
    "name": "(2000 JF5)",
    "designation": "2000 JF5",
    "nasa_jpl_url": "http://ssd.jpl.nasa.gov/sbdb.cgi?sstr=3035245",
    "absolute_magnitude_h": 21.25,
    "estimated_diameter": {
        "kilometers": {
            "estimated_diameter_min": 0.1494703242,
            "estimated_diameter_max": 0.3342258056
        },
        "meters": {
            "estimated_diameter_min": 149.4703242356,
            "estimated_diameter_max": 334.2258056097
        },
        "miles": {
            "estimated_diameter_min": 0.0928765248,
            "estimated_diameter_max": 0.2076782231
        },
        "feet": {
            "estimated_diameter_min": 490.3882185651,
            "estimated_diameter_max": 1096.5413920766
        }
    },
    "is_potentially_hazardous_asteroid": true,
    "close_approach_data": [
        {
            "close_approach_date": "2000-05-09",
            "close_approach_date_full": "2000-May-09 23:01",
            "epoch_date_close_approach": 957913260000,
            "relative_velocity": {
                "kilometers_per_second": "14.6918088447",
                "kilometers_per_hour": "52890.5118409405",
                "miles_per_hour": "32864.1072047222"
            },
            "miss_distance": {
                "astronomical": "0.0510959233",
                "lunar": "19.8763141637",
                "kilometers": "7643841.291363371",
                "miles": "4749662.7336656798"
            },
            "orbiting_body": "Earth"
        }
    ],
    "orbital_data": {
        "orbit_id": "11",
        "orbit_determination_date": "2017-04-06 09:17:00",
        "first_observation_date": "2000-05-01",
        "last_observation_date": "2000-05-06",
        "data_arc_in_days": 5,
        "observations_used": 65,
        "orbit_uncertainty": "9",
        "minimum_orbit_intersection": ".0209822",
        "jupiter_tisserand_invariant": "3.546",
        "epoch_osculation": "2451668.5",
        "eccentricity": ".5566957769403895",
        "semi_major_axis": "2.054848797438646",
        "inclination": "13.73226566530046",
        "ascending_node_longitude": "58.12404312831941",
        "orbital_period": "1075.890896277826",
        "perihelion_distance": ".910923149653514",
        "perihelion_argument": "216.8907694799375",
        "aphelion_distance": "3.198774445223778",
        "perihelion_time": "2451707.102461547570",
        "mean_anomaly": "347.0833685783538",
        "mean_motion": ".3346064189644725",
        "equinox": "J2000",
        "orbit_class": {
            "orbit_class_type": "APO",
            "orbit_class_description": "Near-Earth asteroid orbits which cross the Earth’s orbit similar to that of 1862 Apollo",
            "orbit_class_range": "a (semi-major axis) > 1.0 AU; q (perihelion) < 1.017 AU"
        }
    },
    "is_sentry_object": false
}